{"type": "FeatureCollection", "features": [ {"type": "Feature", "properties": {"norad_id": 33726, "name": "FENGYUN 1C DEB", "group": "fengyun-1c-debris", "lat": 26.501727545456475, "lon": -70.55161663207419, "alt_km": 876.5739877814804, "timestamp": "2025-12-06T16:45:43.009251+00:00", "meta": {"OBJECT_NAME": "FENGYUN 1C DEB", "OBJECT_ID": "1999-025DHP", "EPOCH": "2025-12-05T14:53:49.158240", "MEAN_MOTION": 14.1429103, "ECCENTRICITY": 0.01931489, "INCLINATION": 98.6386, "RA_OF_ASC_NODE": 104.0583, "ARG_OF_PERICENTER": 51.4447, "MEAN_ANOMALY": 15.4688, "EPHEMERIS_TYPE": 0, "CLASSIFICATION_TYPE": "U", "NORAD_CAT_ID": 33726, "ELEMENT_SET_NO": 999, "REV_AT_EPOCH": 91831, "BSTAR": 0.00052823874, "MEAN_MOTION_DOT": 1.165e-05, "MEAN_MOTION_DDOT": 0}, "tle": {"line1": "1 33726U 99025DHP 25339.62070785  .00001165  00000+0  52824-3 0  9999", "line2": "2 33726  98.6386 104.0583 0193148  51.4447  15.4688 14.14291030918314"}}, "geometry": {"type": "Point", "coordinates": [-70.55161663207419, 26.501727545456475]}}, {"type": "Feature", "properties": {"norad_id": 33728, "name": "FENGYUN 1C DEB", "group": "fengyun-1c-debris", "lat": -13.121724105700308, "lon": -146.3770538027936, "alt_km": 516.8996528180287, "timestamp": "2025-12-06T16:45:43.009261+00:00", "meta": {"OBJECT_NAME": "FENGYUN 1C DEB", "OBJECT_ID": "1999-025DHR", "EPOCH": "2025-12-03T02:36:27.776448", "MEAN_MOTION": 14.9242061, "ECCENTRICITY": 0.01477094, "INCLINATION": 98.9821, "RA_OF_ASC_NODE": 31.6441, "ARG_OF_PERICENTER": 246.0941, "MEAN_ANOMALY": 112.4742, "EPHEMERIS_TYPE": 0, "CLASSIFICATION_TYPE": "U", "NORAD_CAT_ID": 33728, "ELEMENT_SET_NO": 999, "REV_AT_EPOCH": 98156, "BSTAR": 0.00081217474, "MEAN_MOTION_DOT": 0.00010213, "MEAN_MOTION_DDOT": 0}, "tle": {"line1": "1 33728U 99025DHR 25337.10865482  .00010213  00000+0  81217-3 0  9990", "line2": "2 33728  98.9821  31.6441 0147709 246.0941 112.4742 14.92420610981564"}}, "geometry": {"type": "Point", "coordinates": [-146.3770538027936, -13.121724105700308]}}, {"type": "Feature", "properties": {"norad_id": 33730, "name": "FENGYUN 1C DEB", "group": "fengyun-1c-debris", "lat": 18.366103473285314, "lon": 34.82834488264307, "alt_km": 655.1425548654624, "timestamp": "2025-12-06T16:45:43.009283+00:00", "meta": {"OBJECT_NAME": "FENGYUN 1C DEB", "OBJECT_ID": "1999-025DHT", "EPOCH": "2025-12-03T09:54:11.246688", "MEAN_MOTION": 14.63205109, "ECCENTRICITY": 0.00401027, "INCLINATION": 99.0564, "RA_OF_ASC_NODE": 34.2592, "ARG_OF_PERICENTER": 40.0931, "MEAN_ANOMALY": 320.3216, "EPHEMERIS_TYPE": 0, "CLASSIFICATION_TYPE": "U", "NORAD_CAT_ID": 33730, "ELEMENT_SET_NO": 999, "REV_AT_EPOCH": 95543, "BSTAR": 0.0021836397, "MEAN_MOTION_DOT": 0.00011334, "MEAN_MOTION_DDOT": 0}, "tle": {"line1": "1 33730U 99025DHT 25337.41263017  .00011334  00000+0  21836-2 0  9998", "line2": "2 33730  99.0564  34.2592 0040102  40.0931 320.3216 14.63205109955434"}}, "geometry": {"type": "Point", "coordinates": [34.82834488264307, 18.366103473285314]}}, {"type": "Feature", "properties": {"norad_id": 33731, "name": "FENGYUN 1C DEB", "group": "fengyun-1c-debris", "lat": -73.0451776204622, "lon": 35.87973254515864, "alt_km": 998.0767109097842, "timestamp": "2025-12-06T16:45:43.009295+00:00", "meta": {"OBJECT_NAME": "FENGYUN 1C DEB", "OBJECT_ID": "1999-025DHU", "EPOCH": "2025-12-05T18:45:19.185984", "MEAN_MOTION": 13.95299389, "ECCENTRICITY": 0.01305035, "INCLINATION": 99.4488, "RA_OF_ASC_NODE": 1.8318, "ARG_OF_PERICENTER": 75.0913, "MEAN_ANOMALY": 286.4656, "EPHEMERIS_TYPE": 0, "CLASSIFICATION_TYPE": "U", "NORAD_CAT_ID": 33731, "ELEMENT_SET_NO": 999, "REV_AT_EPOCH": 90352, "BSTAR": 0.0017379383, "MEAN_MOTION_DOT": 2.48e-05, "MEAN_MOTION_DDOT": 0}, "tle": {"line1": "1 33731U 99025DHU 25339.78147206  .00002480  00000+0  17379-2 0  9991", "line2": "2 33731  99.4488   1.8318 0130503  75.0913 286.4656 13.95299389903523"}}, "geometry": {"type": "Point", "coordinates": [35.87973254515864, -73.0451776204622]}}, {"type": "Feature", "properties": {"norad_id": 33733, "name": "FENGYUN 1C DEB", "group": "fengyun-1c-debris", "lat": -29.197975402833045, "lon": -119.39553110031723, "alt_km": 741.1503740942062, "timestamp": "2025-12-06T16:45:43.009306+00:00", "meta": {"OBJECT_NAME": "FENGYUN 1C DEB", "OBJECT_ID": "1999-025DHW", "EPOCH": "2025-12-01T05:07:55.247232", "MEAN_MOTION": 14.3062472, "ECCENTRICITY": 0.0081329, "INCLINATION": 99.0999, "RA_OF_ASC_NODE": 60.0061, "ARG_OF_PERICENTER": 202.8537, "MEAN_ANOMALY": 213.8436, "EPHEMERIS_TYPE": 0, "CLASSIFICATION_TYPE": "U", "NORAD_CAT_ID": 33733, "ELEMENT_SET_NO": 999, "REV_AT_EPOCH": 90283, "BSTAR": 0.0047064, "MEAN_MOTION_DOT": 0.00012718, "MEAN_MOTION_DDOT": 0}, "tle": {"line1": "1 33733U 99025DHW 25335.21383388  .00012718  00000+0  47064-2 0  9999", "line2": "2 33733  99.0999  60.0061 0081329 202.8537 213.8436 14.30624720902837"}}, "geometry": {"type": "Point", "coordinates": [-119.39553110031723, -29.197975402833045]}}, {"type": "Feature", "properties": {"norad_id": 33737, "name": "FENGYUN 1C DEB", "group": "fengyun-1c-debris", "lat": -67.2842097951691, "lon": -164.38245408102165, "alt_km": 798.6660913353226, "timestamp": "2025-12-06T16:45:43.009316+00:00", "meta": {"OBJECT_NAME": "FENGYUN 1C DEB", "OBJECT_ID": "1999-025DJA", "EPOCH": "2025-12-06T00:41:55.154112", "MEAN_MOTION": 14.02959151, "ECCENTRICITY": 0.01284149, "INCLINATION": 98.3382, "RA_OF_ASC_NODE": 174.497, "ARG_OF_PERICENTER": 302.2635, "MEAN_ANOMALY": 210.686, "EPHEMERIS_TYPE": 0, "CLASSIFICATION_TYPE": "U", "NORAD_CAT_ID": 33737, "ELEMENT_SET_NO": 999, "REV_AT_EPOCH": 88646, "BSTAR": 0.0020293236, "MEAN_MOTION_DOT": 3.347e-05, "MEAN_MOTION_DDOT": 0}, "tle": {"line1": "1 33737U 99025DJA 25340.02911058  .00003347  00000+0  20293-2 0  9992", "line2": "2 33737  98.3382 174.4970 0128414 302.2635 210.6860 14.02959151886463"}}, "geometry": {"type": "Point", "coordinates": [-164.38245408102165, -67.2842097951691]}}, {"type": "Feature", "properties": {"norad_id": 33738, "name": "FENGYUN 1C DEB", "group": "fengyun-1c-debris", "lat": -73.3733643600089, "lon": 73.41246376393543, "alt_km": 955.7120690486881, "timestamp": "2025-12-06T16:45:43.009326+00:00", "meta": {"OBJECT_NAME": "FENGYUN 1C DEB", "OBJECT_ID": "1999-025DJB", "EPOCH": "2025-12-04T03:28:56.102592", "MEAN_MOTION": 13.99511087, "ECCENTRICITY": 0.01852146, "INCLINATION": 99.1538, "RA_OF_ASC_NODE": 38.1791, "ARG_OF_PERICENTER": 45.1084, "MEAN_ANOMALY": 343.5505, "EPHEMERIS_TYPE": 0, "CLASSIFICATION_TYPE": "U", "NORAD_CAT_ID": 33738, "ELEMENT_SET_NO": 999, "REV_AT_EPOCH": 89116, "BSTAR": 0.00082794835, "MEAN_MOTION_DOT": 1.356e-05, "MEAN_MOTION_DDOT": 0}, "tle": {"line1": "1 33738U 99025DJB 25338.14509378  .00001356  00000+0  82795-3 0  9995", "line2": "2 33738  99.1538  38.1791 0185214  45.1084 343.5505 13.99511087891167"}}, "geometry": {"type": "Point", "coordinates": [73.41246376393543, -73.3733643600089]}}, {"type": "Feature", "properties": {"norad_id": 33740, "name": "FENGYUN 1C DEB", "group": "fengyun-1c-debris", "lat": 45.625108636689625, "lon": -15.194935847680169, "alt_km": 847.5064263587919, "timestamp": "2025-12-06T16:45:43.009336+00:00", "meta": {"OBJECT_NAME": "FENGYUN 1C DEB", "OBJECT_ID": "1999-025DJD", "EPOCH": "2025-12-06T06:20:30.016320", "MEAN_MOTION": 14.12317377, "ECCENTRICITY": 0.00018395, "INCLINATION": 98.6875, "RA_OF_ASC_NODE": 353.3746, "ARG_OF_PERICENTER": 139.8493, "MEAN_ANOMALY": 220.2815, "EPHEMERIS_TYPE": 0, "CLASSIFICATION_TYPE": "U", "NORAD_CAT_ID": 33740, "ELEMENT_SET_NO": 999, "REV_AT_EPOCH": 90055, "BSTAR": 0.00026326697, "MEAN_MOTION_DOT": 4.42e-06, "MEAN_MOTION_DDOT": 0}, "tle": {"line1": "1 33740U 99025DJD 25340.26423630  .00000442  00000+0  26327-3 0  9994", "line2": "2 33740  98.6875 353.3746 0001839 139.8493 220.2815 14.12317377900556"}}, "geometry": {"type": "Point", "coordinates": [-15.194935847680169, 45.625108636689625]}}, {"type": "Feature", "properties": {"norad_id": 33741, "name": "FENGYUN 1C DEB", "group": "fengyun-1c-debris", "lat": 38.10555955291446, "lon": 81.37339667269117, "alt_km": 782.5877895601907, "timestamp": "2025-12-06T16:45:43.009347+00:00", "meta": {"OBJECT_NAME": "FENGYUN 1C DEB", "OBJECT_ID": "1999-025DJE", "EPOCH": "2025-12-03T01:13:47.209440", "MEAN_MOTION": 14.09703681, "ECCENTRICITY": 0.01266969, "INCLINATION": 98.5656, "RA_OF_ASC_NODE": 251.1133, "ARG_OF_PERICENTER": 115.9094, "MEAN_ANOMALY": 245.52, "EPHEMERIS_TYPE": 0, "CLASSIFICATION_TYPE": "U", "NORAD_CAT_ID": 33741, "ELEMENT_SET_NO": 999, "REV_AT_EPOCH": 56726, "BSTAR": 0.00265972, "MEAN_MOTION_DOT": 4.989e-05, "MEAN_MOTION_DDOT": 0}, "tle": {"line1": "1 33741U 99025DJE 25337.05124085  .00004989  00000+0  26597-2 0  9998", "line2": "2 33741  98.5656 251.1133 0126696 115.9094 245.5200 14.09703681567267"}}, "geometry": {"type": "Point", "coordinates": [81.37339667269117, 38.10555955291446]}}, {"type": "Feature", "properties": {"norad_id": 33745, "name": "FENGYUN 1C DEB", "group": "fengyun-1c-debris", "lat": -47.53542808289183, "lon": -172.44626167415464, "alt_km": 803.0044732582292, "timestamp": "2025-12-06T16:45:43.009358+00:00", "meta": {"OBJECT_NAME": "FENGYUN 1C DEB", "OBJECT_ID": "1999-025DJJ", "EPOCH": "2025-11-25T01:05:32.743968", "MEAN_MOTION": 14.22170506, "ECCENTRICITY": 0.00530671, "INCLINATION": 99.1146, "RA_OF_ASC_NODE": 5.6166, "ARG_OF_PERICENTER": 317.4724, "MEAN_ANOMALY": 42.2348, "EPHEMERIS_TYPE": 0, "CLASSIFICATION_TYPE": "U", "NORAD_CAT_ID": 33745, "ELEMENT_SET_NO": 999, "REV_AT_EPOCH": 65750, "BSTAR": 0.0015193996, "MEAN_MOTION_DOT": 3.37e-05, "MEAN_MOTION_DDOT": 0}, "tle": {"line1": "1 33745U 99025DJJ 25329.04551787  .00003370  00000+0  15194-2 0  9999", "line2": "2 33745  99.1146   5.6166 0053067 317.4724  42.2348 14.22170506657501"}}, "geometry": {"type": "Point", "coordinates": [-172.44626167415464, -47.53542808289183]}}]}